$$SOE
2461295.500000000, A.D. 2026-Sep-12 00:00:00.0000, -4.387767493034818E+08, -1.445780836507536E+08, 2.871547900078828E+07,
2461302.500000000, A.D. 2026-Sep-19 00:00:00.0000, -4.379784268292536E+08, -1.547900170490204E+08, 2.829098405570128E+07,
2461309.500000000, A.D. 2026-Sep-26 00:00:00.0000, -4.369691481240795E+08, -1.649273880101624E+08, 2.785286133304799E+07,
2461316.500000000, A.D. 2026-Oct-03 00:00:00.0000, -4.357527559399129E+08, -1.749865835592064E+08, 2.740153589858080E+07,
2461323.500000000, A.D. 2026-Oct-10 00:00:00.0000, -4.343330847458407E+08, -1.849641473323872E+08, 2.693742662146194E+07,
2461330.500000000, A.D. 2026-Oct-17 00:00:00.0000, -4.327139569177502E+08, -1.948567739523060E+08, 2.646094607926682E+07,
2461337.500000000, A.D. 2026-Oct-24 00:00:00.0000, -4.308991792996678E+08, -2.046613036019184E+08, 2.597250047953989E+07,
2461344.500000000, A.D. 2026-Oct-31 00:00:00.0000, -4.288925400148214E+08, -2.143747168734801E+08, 2.547248958140311E+07,
2461351.500000000, A.D. 2026-Nov-07 00:00:00.0000, -4.266978051651819E+08, -2.239941298261444E+08, 2.496130659035272E+07,
2461358.500000000, A.D. 2026-Nov-14 00:00:00.0000, -4.243187151972585E+08, -2.335167883709496E+08, 2.443933807868293E+07,
2461365.500000000, A.D. 2026-Nov-21 00:00:00.0000, -4.217589827251824E+08, -2.429400613062147E+08, 2.390696415187803E+07,
2461372.500000000, A.D. 2026-Nov-28 00:00:00.0000, -4.190222927899172E+08, -2.522614350158352E+08, 2.336455870527501E+07,
2461379.500000000, A.D. 2026-Dec-05 00:00:00.0000, -4.161123019180997E+08, -2.614785104903299E+08, 2.281248938423823E+07,
2461386.500000000, A.D. 2026-Dec-12 00:00:00.0000, -4.130326357992448E+08, -2.705889995609648E+08, 2.225111748599434E+07,
2461393.500000000, A.D. 2026-Dec-19 00:00:00.0000, -4.097868874517781E+08, -2.795907203405740E+08, 2.168079797572833E+07,
2461400.500000000, A.D. 2026-Dec-26 00:00:00.0000, -4.063786160042505E+08, -2.884815927393013E+08, 2.110187955801499E+07,
2461407.500000000, A.D. 2027-Jan-02 00:00:00.0000, -4.028113458016942E+08, -2.972596342464657E+08, 2.051470476170842E+07,
2461414.500000000, A.D. 2027-Jan-09 00:00:00.0000, -3.990885657077956E+08, -3.059229559581496E+08, 1.991961002834634E+07,
2461421.500000000, A.D. 2027-Jan-16 00:00:00.0000, -3.952137285565317E+08, -3.144697588406989E+08, 1.931692580074988E+07,
2461428.500000000, A.D. 2027-Jan-23 00:00:00.0000, -3.911902506972918E+08, -3.228983302681682E+08, 1.870697660357960E+07,
2461435.500000000, A.D. 2027-Jan-30 00:00:00.0000, -3.870215114366813E+08, -3.312070408794168E+08, 1.809008109394668E+07,
2461442.500000000, A.D. 2027-Feb-06 00:00:00.0000, -3.827108519439192E+08, -3.393943414121643E+08, 1.746655207014266E+07,
2461449.500000000, A.D. 2027-Feb-13 00:00:00.0000, -3.782615740720406E+08, -3.474587582908962E+08, 1.683669657961048E+07,
2461456.500000000, A.D. 2027-Feb-20 00:00:00.0000, -3.736769414503365E+08, -3.553988887557565E+08, 1.620081627749702E+07,
2461463.500000000, A.D. 2027-Feb-27 00:00:00.0000, -3.689601814438375E+08, -3.632133987428652E+08, 1.555920764430775E+07,
2461470.500000000, A.D. 2027-Mar-06 00:00:00.0000, -3.641144849542990E+08, -3.709010215906637E+08, 1.491216194229139E+07,
2461477.500000000, A.D. 2027-Mar-13 00:00:00.0000, -3.591430056556572E+08, -3.784605555196795E+08, 1.425996522421585E+07,
2461484.500000000, A.D. 2027-Mar-20 00:00:00.0000, -3.540488597863579E+08, -3.858908607173817E+08, 1.360289842932899E+07,
2461491.500000000, A.D. 2027-Mar-27 00:00:00.0000, -3.488351262904665E+08, -3.931908565745228E+08, 1.294123750258367E+07,
2461498.500000000, A.D. 2027-Apr-03 00:00:00.0000, -3.435048470996214E+08, -4.003595191181798E+08, 1.227525351417667E+07,
2461505.500000000, A.D. 2027-Apr-10 00:00:00.0000, -3.380610274902537E+08, -4.073958786154818E+08, 1.160521277533424E+07,
2461512.500000000, A.D. 2027-Apr-17 00:00:00.0000, -3.325066364898714E+08, -4.142990173588595E+08, 1.093137694688293E+07,
2461519.500000000, A.D. 2027-Apr-24 00:00:00.0000, -3.268446072490494E+08, -4.210680676911831E+08, 1.025400312803102E+07,
2461526.500000000, A.D. 2027-May-01 00:00:00.0000, -3.210778370753582E+08, -4.277022102391136E+08, 9.573343899943650E+06,
2461533.500000000, A.D. 2027-May-08 00:00:00.0000, -3.152091868178068E+08, -4.342006716023920E+08, 8.889647356903195E+06,
2461540.500000000, A.D. 2027-May-15 00:00:00.0000, -3.092414810946035E+08, -4.405627205416715E+08, 8.203157340097189E+06,
2461547.500000000, A.D. 2027-May-22 00:00:00.0000, -3.031775109239191E+08, -4.467876652528979E+08, 7.514113805491745E+06,
2461554.500000000, A.D. 2027-May-29 00:00:00.0000, -2.970200353982504E+08, -4.528748531940011E+08, 6.822752897909552E+06,
2461561.500000000, A.D. 2027-Jun-05 00:00:00.0000, -2.907717815150465E+08, -4.588236703298404E+08, 6.129306906135589E+06,
2461568.500000000, A.D. 2027-Jun-12 00:00:00.0000, -2.844354441687649E+08, -4.646335393607427E+08, 5.434004318550140E+06,
2461575.500000000, A.D. 2027-Jun-19 00:00:00.0000, -2.780136866329591E+08, -4.703039178666782E+08, 4.737069933328271E+06,
2461582.500000000, A.D. 2027-Jun-26 00:00:00.0000, -2.715091412507019E+08, -4.758342966257117E+08, 4.038724976323098E+06,
2461589.500000000, A.D. 2027-Jul-03 00:00:00.0000, -2.649244101992503E+08, -4.812241980960862E+08, 3.339187215323508E+06,
2461596.500000000, A.D. 2027-Jul-10 00:00:00.0000, -2.582620662905371E+08, -4.864731750510505E+08, 2.638671068198800E+06,
2461603.500000000, A.D. 2027-Jul-17 00:00:00.0000, -2.515246537698674E+08, -4.915808094031087E+08, 1.937387698643237E+06,
2461610.500000000, A.D. 2027-Jul-24 00:00:00.0000, -2.447146889552555E+08, -4.965467112782089E+08, 1.235545080272883E+06,
2461617.500000000, A.D. 2027-Jul-31 00:00:00.0000, -2.378346603048889E+08, -5.013705181020228E+08, 5.333480108091831E+05,
2461624.500000000, A.D. 2027-Aug-07 00:00:00.0000, -2.308870281123804E+08, -5.060518925441518E+08, -1.690018109388649E+05,
2461631.500000000, A.D. 2027-Aug-14 00:00:00.0000, -2.238742261296609E+08, -5.105905195709499E+08, -8.713054548533857E+05,
2461638.500000000, A.D. 2027-Aug-21 00:00:00.0000, -2.167986644978313E+08, -5.149861059689585E+08, -1.573366507704139E+06,
2461645.500000000, A.D. 2027-Aug-28 00:00:00.0000, -2.096627305539477E+08, -5.192383811344538E+08, -2.274991116171360E+06,
2461652.500000000, A.D. 2027-Sep-04 00:00:00.0000, -2.024687886944808E+08, -5.233470966254377E+08, -2.975988011950374E+06,
2461659.500000000, A.D. 2027-Sep-11 00:00:00.0000, -1.952191806903027E+08, -5.273120251355232E+08, -3.676168445169091E+06,
2461666.500000000, A.D. 2027-Sep-18 00:00:00.0000, -1.879162263194228E+08, -5.311329595378973E+08, -4.375346091693729E+06,
2461673.500000000, A.D. 2027-Sep-25 00:00:00.0000, -1.805622240879955E+08, -5.348097120750384E+08, -5.073336961923391E+06,
2461680.500000000, A.D. 2027-Oct-02 00:00:00.0000, -1.731594519640183E+08, -5.383421136648252E+08, -5.769959315974265E+06,
2461687.500000000, A.D. 2027-Oct-09 00:00:00.0000, -1.657101681009207E+08, -5.417300133258162E+08, -6.465033587920129E+06,
2461694.500000000, A.D. 2027-Oct-16 00:00:00.0000, -1.582166114877178E+08, -5.449732777747355E+08, -7.158382329547852E+06,
2461701.500000000, A.D. 2027-Oct-23 00:00:00.0000, -1.506810022656851E+08, -5.480717911997709E+08, -7.849830198047668E+06,
2461708.500000000, A.D. 2027-Oct-30 00:00:00.0000, -1.431055413364819E+08, -5.510254545971253E+08, -8.539203972202301E+06,
2461715.500000000, A.D. 2027-Nov-06 00:00:00.0000, -1.354924104245217E+08, -5.538341835404543E+08, -9.226332398221165E+06,
2461722.500000000, A.D. 2027-Nov-13 00:00:00.0000, -1.278437745780106E+08, -5.564979064574254E+08, -9.911045852872699E+06,
2461729.500000000, A.D. 2027-Nov-20 00:00:00.0000, -1.201617842057617E+08, -5.590165655984215E+08, -1.059317626876664E+07,
2461736.500000000, A.D. 2027-Nov-27 00:00:00.0000, -1.124485750319786E+08, -5.613901177330791E+08, -1.127255722787046E+07,
2461743.500000000, A.D. 2027-Dec-04 00:00:00.0000, -1.047062679930224E+08, -5.636185336606088E+08, -1.194902396290269E+07,
2461750.500000000, A.D. 2027-Dec-11 00:00:00.0000, -9.693696962726653E+07, -5.657017974970777E+08, -1.262241329477775E+07,
2461757.500000000, A.D. 2027-Dec-18 00:00:00.0000, -8.914277268343616E+07, -5.676399060775878E+08, -1.329256355890563E+07,
2461764.500000000, A.D. 2027-Dec-25 00:00:00.0000, -8.132575679557882E+07, -5.694328684742160E+08, -1.395931453433809E+07,
2461771.500000000, A.D. 2028-Jan-01 00:00:00.0000, -7.348798918318155E+07, -5.710807056139536E+08, -1.462250737823814E+07,
$$EOE